OBJECT C                
1 57582U 23117C   24191.15598656  .00007041  00000+0  36552-3 0  9998
2 57582  97.4856 262.9194 0010247 210.6414 149.4221 15.16387717 50513
